start=new Date('2022-11-25T00:00:00.000Z').valueOf();
sats=[{"TLE_LINE1":"1 49155U 21082AB  22328.61712280  .00002946  00000-0  25458-3 0  9999","ELEMENT_SET_NO":"999","MEAN_ANOMALY":"115.3720","ARG_OF_PERICENTER":"244.7056","MEAN_ELEMENT_THEORY":"SGP4","TIME_SYSTEM":"UTC","TLE_LINE2":"2 49155  70.0030  42.7872 0003698 244.7056 115.3720 14.98330122 68130","INCLINATION":"70.0030","APOAPSIS":"574.628","SITE":"AFWTR","PERIAPSIS":"569.487","OBJECT_TYPE":"PAYLOAD","OBJECT_ID":"2021-082AB","LAUNCH_DATE":"2021-09-14","MEAN_MOTION":"14.98330122","PERIOD":"96.107","FILE":"3669335","MEAN_MOTION_DOT":"0.00002946","SEMIMAJOR_AXIS":"6950.193","CLASSIFICATION_TYPE":"U","REV_AT_EPOCH":"6813","EPHEMERIS_TYPE":"0","COUNTRY_CODE":"US","OBJECT_NAME":"STARLINK-3060","ECCENTRICITY":"0.00036980","MEAN_MOTION_DDOT":"0.0000000000000","REF_FRAME":"TEME","NORAD_CAT_ID":"49155","GP_ID":"218724238","DECAY_DATE":null,"RA_OF_ASC_NODE":"42.7872","RCS_SIZE":"LARGE","BSTAR":"0.00025458000000","CENTER_NAME":"EARTH","EPOCH":"2022-11-24T14:48:39.409920"},{"EPOCH":"2022-11-24T14:21:10.308672","BSTAR":"0.00004123900000","RCS_SIZE":"LARGE","CENTER_NAME":"EARTH","RA_OF_ASC_NODE":"42.8286","DECAY_DATE":null,"GP_ID":"218724245","NORAD_CAT_ID":"49156","MEAN_MOTION_DDOT":"0.0000000000000","REF_FRAME":"TEME","ECCENTRICITY":"0.00031430","OBJECT_NAME":"STARLINK-3085","EPHEMERIS_TYPE":"0","COUNTRY_CODE":"US","SEMIMAJOR_AXIS":"6950.184","CLASSIFICATION_TYPE":"U","REV_AT_EPOCH":"6813","MEAN_MOTION_DOT":"0.00000399","FILE":"3669335","LAUNCH_DATE":"2021-09-14","OBJECT_ID":"2021-082AC","PERIOD":"96.107","MEAN_MOTION":"14.98332761","OBJECT_TYPE":"PAYLOAD","PERIAPSIS":"569.865","INCLINATION":"70.0005","SITE":"AFWTR","APOAPSIS":"574.234","TLE_LINE2":"2 49156  70.0005  42.8286 0003143 276.6350  83.4451 14.98332761 68136","MEAN_ELEMENT_THEORY":"SGP4","TIME_SYSTEM":"UTC","MEAN_ANOMALY":"83.4451","ARG_OF_PERICENTER":"276.6350","TLE_LINE1":"1 49156U 21082AC  22328.59803598  .00000399  00000-0  41239-4 0  9996","ELEMENT_SET_NO":"999"},{"RA_OF_ASC_NODE":"62.8753","CENTER_NAME":"EARTH","BSTAR":"0.00013032000000","RCS_SIZE":"LARGE","EPOCH":"2022-11-24T13:51:47.623392","GP_ID":"218724495","DECAY_DATE":null,"NORAD_CAT_ID":"49157","EPHEMERIS_TYPE":"0","COUNTRY_CODE":"US","OBJECT_NAME":"STARLINK-3051","ECCENTRICITY":"0.00037560","REF_FRAME":"TEME","MEAN_MOTION_DDOT":"0.0000000000000","MEAN_MOTION_DOT":"0.00001462","CLASSIFICATION_TYPE":"U","REV_AT_EPOCH":"6765","SEMIMAJOR_AXIS":"6950.184","OBJECT_TYPE":"PAYLOAD","MEAN_MOTION":"14.98332968","PERIOD":"96.107","OBJECT_ID":"2021-082AD","LAUNCH_DATE":"2021-09-14","FILE":"3669335","TLE_LINE2":"2 49157  70.0011  62.8753 0003756 236.6732 123.4068 14.98332968 67659","APOAPSIS":"574.659","SITE":"AFWTR","INCLINATION":"70.0011","PERIAPSIS":"569.438","ELEMENT_SET_NO":"999","TLE_LINE1":"1 49157U 21082AD  22328.57763453  .00001462  00000-0  13032-3 0  9991","ARG_OF_PERICENTER":"236.6732","MEAN_ANOMALY":"123.4068","TIME_SYSTEM":"UTC","MEAN_ELEMENT_THEORY":"SGP4"},{"GP_ID":"218724747","DECAY_DATE":null,"RA_OF_ASC_NODE":"62.3964","CENTER_NAME":"EARTH","RCS_SIZE":"LARGE","BSTAR":"-0.00009415900000","EPOCH":"2022-11-24T18:33:20.917728","COUNTRY_CODE":"US","EPHEMERIS_TYPE":"0","OBJECT_NAME":"STARLINK-3083","ECCENTRICITY":"0.00029790","REF_FRAME":"TEME","MEAN_MOTION_DDOT":"0.0000000000000","NORAD_CAT_ID":"49158","OBJECT_TYPE":"PAYLOAD","MEAN_MOTION":"14.98321937","PERIOD":"96.108","LAUNCH_DATE":"2021-09-14","OBJECT_ID":"2021-082AE","FILE":"3669335","MEAN_MOTION_DOT":"-0.00001216","REV_AT_EPOCH":"6768","CLASSIFICATION_TYPE":"U","SEMIMAJOR_AXIS":"6950.218","ELEMENT_SET_NO":"999","TLE_LINE1":"1 49158U 21082AE  22328.77315877 -.00001216  00000-0 -94159-4 0  9996","ARG_OF_PERICENTER":"264.5695","MEAN_ANOMALY":"95.5124","TIME_SYSTEM":"UTC","MEAN_ELEMENT_THEORY":"SGP4","TLE_LINE2":"2 49158  70.0007  62.3964 0002979 264.5695  95.5124 14.98321937 67687","APOAPSIS":"574.153","SITE":"AFWTR","INCLINATION":"70.0007","PERIAPSIS":"570.012"},{"MEAN_ANOMALY":"109.9996","ARG_OF_PERICENTER":"250.0802","MEAN_ELEMENT_THEORY":"SGP4","TIME_SYSTEM":"UTC","TLE_LINE1":"1 49159U 21082AF  22328.74320906  .00000515  00000-0  50985-4 0  9991","ELEMENT_SET_NO":"999","PERIAPSIS":"569.701","TLE_LINE2":"2 49159  70.0001  82.4820 0003353 250.0802 109.9996 14.98338579 67185","INCLINATION":"70.0001","APOAPSIS":"574.362","SITE":"AFWTR","FILE":"3669335","OBJECT_TYPE":"PAYLOAD","OBJECT_ID":"2021-082AF","LAUNCH_DATE":"2021-09-14","MEAN_MOTION":"14.98338579","PERIOD":"96.106","SEMIMAJOR_AXIS":"6950.166","REV_AT_EPOCH":"6718","CLASSIFICATION_TYPE":"U","MEAN_MOTION_DOT":"0.00000515","ECCENTRICITY":"0.00033530","REF_FRAME":"TEME","MEAN_MOTION_DDOT":"0.0000000000000","EPHEMERIS_TYPE":"0","COUNTRY_CODE":"US","OBJECT_NAME":"STARLINK-3056","NORAD_CAT_ID":"49159","GP_ID":"218723739","DECAY_DATE":null,"EPOCH":"2022-11-24T17:50:13.262784","RA_OF_ASC_NODE":"82.4820","BSTAR":"0.00005098500000","RCS_SIZE":"LARGE","CENTER_NAME":"EARTH"},{"DECAY_DATE":null,"GP_ID":"218723746","EPOCH":"2022-11-24T17:36:29.430144","RCS_SIZE":"LARGE","BSTAR":"-0.00004578400000","CENTER_NAME":"EARTH","RA_OF_ASC_NODE":"82.4915","MEAN_MOTION_DDOT":"0.0000000000000","REF_FRAME":"TEME","ECCENTRICITY":"0.00034410","OBJECT_NAME":"STARLINK-3095","EPHEMERIS_TYPE":"0","COUNTRY_CODE":"US","NORAD_CAT_ID":"49160","FILE":"3669335","OBJECT_ID":"2021-082AG","LAUNCH_DATE":"2021-09-14","MEAN_MOTION":"14.98328255","PERIOD":"96.107","OBJECT_TYPE":"PAYLOAD","SEMIMAJOR_AXIS":"6950.198","CLASSIFICATION_TYPE":"U","REV_AT_EPOCH":"6715","MEAN_MOTION_DOT":"-0.00000639","MEAN_ELEMENT_THEORY":"SGP4","TIME_SYSTEM":"UTC","MEAN_ANOMALY":"106.1648","ARG_OF_PERICENTER":"253.9132","TLE_LINE1":"1 49160U 21082AG  22328.73367396 -.00000639  00000-0 -45784-4 0  9996","ELEMENT_SET_NO":"999","PERIAPSIS":"569.672","INCLINATION":"70.0013","SITE":"AFWTR","APOAPSIS":"574.455","TLE_LINE2":"2 49160  70.0013  82.4915 0003441 253.9132 106.1648 14.98328255 67151"},{"FILE":"3669335","LAUNCH_DATE":"2021-09-14","OBJECT_ID":"2021-082AH","PERIOD":"96.107","MEAN_MOTION":"14.98336008","OBJECT_TYPE":"PAYLOAD","SEMIMAJOR_AXIS":"6950.174","REV_AT_EPOCH":"6716","CLASSIFICATION_TYPE":"U","MEAN_MOTION_DOT":"0.00001035","MEAN_ELEMENT_THEORY":"SGP4","TIME_SYSTEM":"UTC","MEAN_ANOMALY":"111.8995","ARG_OF_PERICENTER":"248.1810","TLE_LINE1":"1 49161U 21082AH  22328.73843632  .00001035  00000-0  94489-4 0  9994","ELEMENT_SET_NO":"999","PERIAPSIS":"569.724","INCLINATION":"69.9997","SITE":"AFWTR","APOAPSIS":"574.355","TLE_LINE2":"2 49161  69.9997  82.4701 0003332 248.1810 111.8995 14.98336008 67165","DECAY_DATE":null,"GP_ID":"218723996","EPOCH":"2022-11-24T17:43:20.898048","RCS_SIZE":"LARGE","BSTAR":"0.00009448900000","CENTER_NAME":"EARTH","RA_OF_ASC_NODE":"82.4701","MEAN_MOTION_DDOT":"0.0000000000000","REF_FRAME":"TEME","ECCENTRICITY":"0.00033320","OBJECT_NAME":"STARLINK-3080","COUNTRY_CODE":"US","EPHEMERIS_TYPE":"0","NORAD_CAT_ID":"49161"},{"COUNTRY_CODE":"US","EPHEMERIS_TYPE":"0","OBJECT_NAME":"STARLINK-3082","ECCENTRICITY":"0.00032320","REF_FRAME":"TEME","MEAN_MOTION_DDOT":"0.0000000000000","NORAD_CAT_ID":"49162","GP_ID":"218725246","DECAY_DATE":null,"RA_OF_ASC_NODE":"82.4989","BSTAR":"0.00013340000000","RCS_SIZE":"LARGE","CENTER_NAME":"EARTH","EPOCH":"2022-11-24T17:29:37.712544","TLE_LINE1":"1 49162U 21082AJ  22328.72890871  .00001499  00000-0  13340-3 0  9991","ELEMENT_SET_NO":"999","MEAN_ANOMALY":"91.8914","ARG_OF_PERICENTER":"268.1874","MEAN_ELEMENT_THEORY":"SGP4","TIME_SYSTEM":"UTC","TLE_LINE2":"2 49162  70.0000  82.4989 0003232 268.1874  91.8914 14.98333450 67248","INCLINATION":"70.0000","APOAPSIS":"574.294","SITE":"AFWTR","PERIAPSIS":"569.801","OBJECT_TYPE":"PAYLOAD","LAUNCH_DATE":"2021-09-14","OBJECT_ID":"2021-082AJ","PERIOD":"96.107","MEAN_MOTION":"14.98333450","FILE":"3669335","MEAN_MOTION_DOT":"0.00001499","SEMIMAJOR_AXIS":"6950.182","CLASSIFICATION_TYPE":"U","REV_AT_EPOCH":"6724"},{"MEAN_ELEMENT_THEORY":"SGP4","TIME_SYSTEM":"UTC","MEAN_ANOMALY":"90.3271","ARG_OF_PERICENTER":"269.7528","TLE_LINE1":"1 49163U 21082AK  22328.76837924  .00001849  00000-0  16268-3 0  9997","ELEMENT_SET_NO":"999","PERIAPSIS":"569.860","INCLINATION":"70.0020","SITE":"AFWTR","APOAPSIS":"574.229","TLE_LINE2":"2 49163  70.0020  62.4093 0003143 269.7528  90.3271 14.98334279 67744","FILE":"3669335","OBJECT_ID":"2021-082AK","LAUNCH_DATE":"2021-09-14","MEAN_MOTION":"14.98334279","PERIOD":"96.107","OBJECT_TYPE":"PAYLOAD","SEMIMAJOR_AXIS":"6950.180","REV_AT_EPOCH":"6774","CLASSIFICATION_TYPE":"U","MEAN_MOTION_DOT":"0.00001849","REF_FRAME":"TEME","MEAN_MOTION_DDOT":"0.0000000000000","ECCENTRICITY":"0.00031430","OBJECT_NAME":"STARLINK-3088","EPHEMERIS_TYPE":"0","COUNTRY_CODE":"US","NORAD_CAT_ID":"49163","DECAY_DATE":null,"GP_ID":"218724239","EPOCH":"2022-11-24T18:26:27.966336","RCS_SIZE":"LARGE","BSTAR":"0.00016268000000","CENTER_NAME":"EARTH","RA_OF_ASC_NODE":"62.4093"},{"SEMIMAJOR_AXIS":"6950.191","CLASSIFICATION_TYPE":"U","REV_AT_EPOCH":"6774","MEAN_MOTION_DOT":"0.00000179","FILE":"3669335","OBJECT_TYPE":"PAYLOAD","LAUNCH_DATE":"2021-09-14","OBJECT_ID":"2021-082AL","PERIOD":"96.107","MEAN_MOTION":"14.98330499","PERIAPSIS":"569.937","TLE_LINE2":"2 49164  70.0002  62.5934 0003049 260.1486  99.9329 14.98330499 67742","INCLINATION":"70.0002","SITE":"AFWTR","APOAPSIS":"574.175","MEAN_ANOMALY":"99.9329","ARG_OF_PERICENTER":"260.1486","MEAN_ELEMENT_THEORY":"SGP4","TIME_SYSTEM":"UTC","TLE_LINE1":"1 49164U 21082AL  22328.69208354  .00000179  00000-0  22768-4 0  9997","ELEMENT_SET_NO":"999","EPOCH":"2022-11-24T16:36:36.017856","RA_OF_ASC_NODE":"62.5934","RCS_SIZE":"LARGE","BSTAR":"0.00002276800000","CENTER_NAME":"EARTH","GP_ID":"218724246","DECAY_DATE":null,"NORAD_CAT_ID":"49164","ECCENTRICITY":"0.00030490","MEAN_MOTION_DDOT":"0.0000000000000","REF_FRAME":"TEME","COUNTRY_CODE":"US","EPHEMERIS_TYPE":"0","OBJECT_NAME":"STARLINK-3106"}];
